{
    "type": "FeatureCollection",
    "features": [
        {
            "type": "Feature",
            "geometry": {
                "type": "Point",
                "coordinates": [
                    100.5018,
                    13.7563
                ]
            },
            "properties": {
                "title": "ฝนตกหนักถึงหนักมากบริเวณประเทศไทย (มีผลกระทบจนถึงวันที่ 27 กันยายน 2569) ฉบับที่ 14 (230/2569)",
                "headline": "ด้านตะวันตกของภาคกลางมีฝนตกหนักหลายพื้นที่และมีฝนตกหนักมากบางแห่ง ส่วนกรุงเทพมหานครและปริมณฑล ภาคตะวันออก ฝนเริ่มลดลงแต่ยังคงมีฝนตกต่อเนื่องและมีฝนตกหนักบางแห่ง\r\n\r\nทั้งนี้เนื่องจากหย่อมความกดอากาศต่ำปกคลุมด้านตะวันตกของภาคกลาง ประกอบกับมรสุมตะวันตกเฉียงใต้กำลังค่อนข้างแรงพัดปกคลุมทะเลอันดามัน ภาคใต้ และอ่าวไทย",
                "description": "ด้านตะวันตกของภาคกลางมีฝนตกหนักหลายพื้นที่และมีฝนตกหนักมากบางแห่ง ส่วนกรุงเทพมหานครและปริมณฑล ภาคตะวันออก ฝนเริ่มลดลงแต่ยังคงมีฝนตกต่อเนื่องและมีฝนตกหนักบางแห่งทั้งนี้เนื่องจากหย่อมความกดอากาศต่ำปกคลุมด้านตะวันตกของภาคกลาง ประกอบกับมรสุมตะวันตกเฉียงใต้กำลังค่อนข้างแรงพัดปกคลุมทะเลอันดามัน ภาคใต้ และอ่าวไทยขอให้ประชาชนบริเวณดังกล่าวระวังอันตรายจากฝนตกหนักถึงหนักมากและฝนตกสะสมที่เกิดขึ้นต่อเนื่อง ซึ่งอาจทำให้เกิดน้ำท่วมสะสม โดยเฉพาะพื้นที่ลาดเชิงเขาใกล้ทางน้ำไหลผ่านและพื้นที่ลุ่ม ควรหลีกเลี่ยงการเดินทางผ่านเส้นทางที่มีปัญหาน้ำท่วมซ้ำซาก โดยเฉพาะพื้นที่ลุ่มต่ำซึ่งอาจเกิดน้ำท่วมขังในระยะสั้นได้สำหรับคลื่นลมบริเวณทะเลอันดามันและอ่าวไทยมีกำลังค่อนข้างแรง โดยอ่าวไทยตอนบนและทะเลอันดามันตอนบนมีคลื่นสูง 2-3 เมตร บริเวณที่มีฝนฟ้าคะนองคลื่นสูงมากกว่า 3 เมตร ส่วนอ่าวไทยตอนล่างและทะเลอันดามันตอนล่างมีคลื่นสูงประมาณ 2 เมตร บริเวณที่มีฝนฟ้าคะนองคลื่นสูงมากกว่า 2 เมตร ชาวเรือบริเวณอ่าวไทยและทะเลอันดามัน ควรเดินเรือด้วยความระมัดระวังและหลีกเลี่ยงการเดินเรือในบริเวณที่มีฝนฟ้าคะนอง เรือเล็กบริเวณอ่าวไทยตอนบนและทะเลอันดามันตอนบนควรงดออกจากฝั่งจนถึงวันที่ 28 ก.ย. 69ทั้งนี้ เพื่อความปลอดภัยและลดผลกระทบที่อาจเกิดขึ้น ขอให้ประชาชนวางแผนการใช้ชีวิตและการเดินทางในช่วงเวลาดังกล่าวอย่างระมัดระวัง",
                "issueNo": "14",
                "announceDate": "2026-09-27 05:47:36",
                "webUrl": "https://tmd.go.th/media/forecast/daily-forecast/2026-09_27_05_warning_th.pdf",
                "status": "active"
            }
        }
    ]
}